[{"OBJECT_NAME":"STARLINK-32315","OBJECT_ID":"2024-152W","EPOCH":"2026-03-09T17:18:41.914944","MEAN_MOTION":15.30191064,"ECCENTRICITY":0.00010536,"INCLINATION":53.1585,"RA_OF_ASC_NODE":268.4287,"ARG_OF_PERICENTER":105.4524,"MEAN_ANOMALY":254.6593,"EPHEMERIS_TYPE":0,"CLASSIFICATION_TYPE":"U","NORAD_CAT_ID":60740,"ELEMENT_SET_NO":999,"REV_AT_EPOCH":8672,"BSTAR":3.2204648e-5,"MEAN_MOTION_DOT":5.95e-6,"MEAN_MOTION_DDOT":0},{"OBJECT_NAME":"FENGYUN 1C DEB","OBJECT_ID":"1999-025EGV","EPOCH":"2026-02-28T16:17:34.017216","MEAN_MOTION":14.9983724,"ECCENTRICITY":0.01801634,"INCLINATION":98.631,"RA_OF_ASC_NODE":214.8944,"ARG_OF_PERICENTER":42.5154,"MEAN_ANOMALY":318.9857,"EPHEMERIS_TYPE":0,"CLASSIFICATION_TYPE":"U","NORAD_CAT_ID":37427,"ELEMENT_SET_NO":999,"REV_AT_EPOCH":61490,"BSTAR":0.00040638516,"MEAN_MOTION_DOT":7.014e-5,"MEAN_MOTION_DDOT":0}]
